NORAD_CAT_ID,OBJECT_NAME,OBJECT_TYPE,EPOCH,MEAN_MOTION,ECCENTRICITY,INCLINATION,RA_OF_ASC_NODE,ARG_OF_PERICENTER,MEAN_ANOMALY,BSTAR,MEAN_MOTION_DOT,MEAN_MOTION_DDOT,TLE_LINE0,TLE_LINE1,TLE_LINE2,SEMIMAJOR_AXIS,PERIOD,APOGEE,PERIGEE,DECAYED
54171.0,STARLINK-5229,PAYLOAD,2024-05-09 10:15:56,15.08848266,0.0001419,53.216,133.3988,96.3699,263.7454,-4.7999e-05,-1.052e-05,0.0,0 STARLINK-5229,1 54171U 22141Q   24130.42774237 -.00001052  00000-0 -47999-4 0  9996,2 54171  53.2160 133.3988 0001419  96.3699 263.7454 15.08848266 84752,6917.855,95.437,540.702,538.738,0.0
54171.0,STARLINK-5229,PAYLOAD,2024-05-09 16:37:29,15.0884982,0.0001307,53.216,132.2094,91.293,268.8212,-6.9328e-05,-1.391e-05,0.0,0 STARLINK-5229,1 54171U 22141Q   24130.69270063 -.00001391  00000-0 -69328-4 0  9999,2 54171  53.2160 132.2094 0001307  91.2930 268.8212 15.08849820 84795,6917.85,95.437,540.62,538.811,0.0
54171.0,STARLINK-5229,PAYLOAD,2024-05-10 05:20:34,15.08838676,0.0001451,53.2162,129.8316,92.6529,267.4629,2.6561e-05,1.35e-06,0.0,0 STARLINK-5229,1 54171U 22141Q   24131.22262699  .00000135  00000-0  26561-4 0  9990,2 54171  53.2162 129.8316 0001451  92.6529 267.4629 15.08838676 84878,6917.884,95.438,540.753,538.746,0.0
54171.0,STARLINK-5229,PAYLOAD,2024-05-10 06:55:58,15.08840011,0.0001446,53.2163,129.5346,92.5544,267.5613,3.7303e-05,3.06e-06,0.0,0 STARLINK-5229,1 54171U 22141Q   24131.28886576  .00000306  00000-0  37303-4 0  9998,2 54171  53.2163 129.5346 0001446  92.5544 267.5613 15.08840011 84880,6917.88,95.438,540.746,538.745,0.0
54171.0,STARLINK-5229,PAYLOAD,2024-05-10 16:28:16,15.08841003,0.0001473,53.2168,127.7504,92.7606,267.3555,4.9202e-05,4.95e-06,0.0,0 STARLINK-5229,1 54171U 22141Q   24131.68630530  .00000495  00000-0  49202-4 0  9999,2 54171  53.2168 127.7504 0001473  92.7606 267.3555 15.08841003 84944,6917.877,95.437,540.761,538.723,0.0
54171.0,STARLINK-5229,PAYLOAD,2024-05-11 05:11:20,15.08853802,0.0001439,53.2162,125.3719,94.4843,265.6314,0.00020394,2.96e-05,0.0,0 STARLINK-5229,1 54171U 22141Q   24132.21621464  .00002960  00000-0  20394-3 0  9994,2 54171  53.2162 125.3719 0001439  94.4843 265.6314 15.08853802 85028,6917.838,95.437,540.699,538.708,0.0
54171.0,STARLINK-5229,PAYLOAD,2024-05-11 16:19:01,15.08863447,0.0001361,53.2164,123.2905,83.0222,277.0925,0.00026639,3.957e-05,0.0,0 STARLINK-5229,1 54171U 22141Q   24132.67988174  .00003957  00000-0  26639-3 0  9993,2 54171  53.2164 123.2905 0001361  83.0222 277.0925 15.08863447 85091,6917.809,95.436,540.615,538.732,0.0
54171.0,STARLINK-5229,PAYLOAD,2024-05-12 05:02:08,15.08841031,0.0001486,53.2153,120.9105,77.0665,283.0493,-7.8974e-05,-1.545e-05,0.0,0 STARLINK-5229,1 54171U 22141Q   24133.20981509 -.00001545  00000-0 -78974-4 0  9991,2 54171  53.2153 120.9105 0001486  77.0665 283.0493 15.08841031 85178,6917.877,95.437,540.77,538.714,0.0
54171.0,STARLINK-5229,PAYLOAD,2024-05-12 08:12:54,15.08843844,0.0001539,53.2156,120.3157,76.8843,283.232,-7.8277e-05,-1.534e-05,0.0,0 STARLINK-5229,1 54171U 22141Q   24133.34229301 -.00001534  00000-0 -78277-4 0  9995,2 54171  53.2156 120.3157 0001539  76.8843 283.2320 15.08843844 85193,6917.869,95.437,540.798,538.669,0.0
54171.0,STARLINK-5229,PAYLOAD,2024-05-12 16:09:50,15.08821633,0.0001605,53.2148,118.8289,89.0105,271.1071,-0.00054424,-8.935e-05,0.0,0 STARLINK-5229,1 54171U 22141Q   24133.67350334 -.00008935  00000-0 -54424-3 0  9991,2 54171  53.2148 118.8289 0001605  89.0105 271.1071 15.08821633 85240,6917.937,95.439,540.912,538.691,0.0
54171.0,STARLINK-5229,PAYLOAD,2024-05-13 04:52:57,15.08792388,0.0001724,53.2162,116.4539,81.319,278.7997,-0.00062961,-0.00010281,0.0,0 STARLINK-5229,1 54171U 22141Q   24134.20344104 -.00010281  00000-0 -62961-3 0  9991,2 54171  53.2162 116.4539 0001724  81.3190 278.7997 15.08792388 85322,6918.026,95.441,541.084,538.698,0.0
54171.0,STARLINK-5229,PAYLOAD,2024-05-13 08:03:43,15.08801243,0.0001633,53.2159,115.858,80.1729,279.9448,-0.00055587,-9.114e-05,0.0,0 STARLINK-5229,1 54171U 22141Q   24134.33592479 -.00009114  00000-0 -55587-3 0  9994,2 54171  53.2159 115.8580 0001633  80.1729 279.9448 15.08801243 85348,6917.999,95.44,540.994,538.734,0.0
54171.0,STARLINK-5229,PAYLOAD,2024-05-13 16:00:39,15.08825023,0.00014,53.2173,114.3706,85.5088,274.6064,-0.00012867,-2.334e-05,0.0,0 STARLINK-5229,1 54171U 22141Q   24134.66712127 -.00002334  00000-0 -12867-3 0  9995,2 54171  53.2173 114.3706 0001400  85.5088 274.6064 15.08825023 85390,6917.926,95.439,540.76,538.823,0.0
54171.0,STARLINK-5229,PAYLOAD,2024-05-14 04:43:44,15.08836473,0.0001218,53.2152,111.9893,89.6406,270.4726,0.00015757,2.221e-05,0.0,0 STARLINK-5229,1 54171U 22141Q   24135.19703717  .00002221  00000-0  15757-3 0  9993,2 54171  53.2152 111.9893 0001218  89.6406 270.4726 15.08836473 85472,6917.891,95.438,540.599,538.914,0.0
54171.0,STARLINK-5229,PAYLOAD,2024-05-14 15:51:25,15.08845978,0.0001366,53.2167,109.9087,89.9337,270.1812,0.00025353,3.75e-05,0.0,0 STARLINK-5229,1 54171U 22141Q   24135.66071234  .00003750  00000-0  25353-3 0  9998,2 54171  53.2167 109.9087 0001366  89.9337 270.1812 15.08845978 85541,6917.862,95.437,540.672,538.782,0.0
54171.0,STARLINK-5229,PAYLOAD,2024-05-15 04:34:31,15.08852452,0.0001391,53.2155,107.5296,94.1239,265.9912,0.00065908,0.0001022,0.0,0 STARLINK-5229,1 54171U 22141Q   24136.19063974  .00010220  00000-0  65908-3 0  9999,2 54171  53.2155 107.5296 0001391  94.1239 265.9912 15.08852452 85628,6917.842,95.437,540.67,538.745,0.0
54171.0,STARLINK-5229,PAYLOAD,2024-05-16 04:25:17,15.08856457,0.0001437,53.2157,103.07,88.7116,271.4041,0.00012619,1.722e-05,0.0,0 STARLINK-5229,1 54171U 22141Q   24137.18423150  .00001722  00000-0  12619-3 0  9993,2 54171  53.2157 103.0700 0001437  88.7116 271.4041 15.08856457 85775,6917.83,95.437,540.689,538.701,0.0
54171.0,STARLINK-5229,PAYLOAD,2024-05-16 07:36:03,15.0885919,0.0001472,53.2164,102.4738,90.1219,269.9942,0.00016777,2.384e-05,0.0,0 STARLINK-5229,1 54171U 22141Q   24137.31670893  .00002384  00000-0  16777-3 0  9990,2 54171  53.2164 102.4738 0001472  90.1219 269.9942 15.08859190 85798,6917.822,95.436,540.705,538.668,0.0
54171.0,STARLINK-5229,PAYLOAD,2024-05-17 13:48:22,15.08846448,0.0001353,53.216,96.8229,86.5516,273.5631,3.2363e-05,2.27e-06,0.0,0 STARLINK-5229,1 54171U 22141Q   24138.57526568  .00000227  00000-0  32363-4 0  9992,2 54171  53.2160  96.8229 0001353  86.5516 273.5631 15.08846448 85981,6917.861,95.437,540.662,538.79,0.0
54171.0,STARLINK-5229,PAYLOAD,2024-05-17 21:45:19,15.08829866,0.0002064,53.2165,95.3341,65.7114,294.4093,-0.00016513,-2.915e-05,0.0,0 STARLINK-5229,1 54171U 22141Q   24138.90647759 -.00002915  00000-0 -16513-3 0  9991,2 54171  53.2165  95.3341 0002064  65.7114 294.4093 15.08829866 86034,6917.911,95.438,541.204,538.349,0.0
54171.0,STARLINK-5229,PAYLOAD,2024-05-18 13:39:10,15.08843245,0.0001329,53.2169,92.3643,81.3115,278.8028,4.3712e-05,4.08e-06,0.0,0 STARLINK-5229,1 54171U 22141Q   24139.56887092  .00000408  00000-0  43712-4 0  9995,2 54171  53.2169  92.3643 0001329  81.3115 278.8028 15.08843245 86130,6917.87,95.437,540.655,538.816,0.0
54171.0,STARLINK-5229,PAYLOAD,2024-05-18 20:00:43,15.08844783,0.0001202,53.2164,91.174,82.0189,278.0939,0.00019927,2.885e-05,0.0,0 STARLINK-5229,1 54171U 22141Q   24139.83383117  .00002885  00000-0  19927-3 0  9995,2 54171  53.2164  91.1740 0001202  82.0189 278.0939 15.08844783 86174,6917.866,95.437,540.562,538.899,0.0
54171.0,STARLINK-5229,PAYLOAD,2024-05-19 03:57:38,15.0886733,0.0001195,53.2161,89.6892,86.5464,273.5665,0.0010234,0.00016049,0.0,0 STARLINK-5229,1 54171U 22141Q   24140.16502624  .00016049  00000-0  10234-2 0  9997,2 54171  53.2161  89.6892 0001195  86.5464 273.5665 15.08867330 86222,6917.797,95.436,540.489,538.835,0.0
54171.0,STARLINK-5229,PAYLOAD,2024-05-19 19:51:30,15.08839444,9.9e-05,53.2161,86.7155,65.3014,294.8081,0.00020974,3.052e-05,0.0,0 STARLINK-5229,1 54171U 22141Q   24140.82743515  .00003052  00000-0  20974-3 0  9999,2 54171  53.2161  86.7155 0000990  65.3014 294.8081 15.08839444 86324,6917.882,95.438,540.432,539.062,0.0
54171.0,STARLINK-5229,PAYLOAD,2024-05-20 03:48:26,15.08827187,0.0001611,53.2158,85.2268,87.5747,272.5429,6.8506e-05,8.02e-06,0.0,0 STARLINK-5229,1 54171U 22141Q   24141.15864077  .00000802  00000-0  68506-4 0  9997,2 54171  53.2158  85.2268 0001611  87.5747 272.5429 15.08827187 86374,6917.92,95.438,540.899,538.67,0.0
54171.0,STARLINK-5229,PAYLOAD,2024-05-20 05:23:49,15.08825915,0.0001705,53.2161,84.9298,85.8882,274.2305,0.00014577,2.032e-05,0.0,0 STARLINK-5229,1 54171U 22141Q   24141.22488225  .00002032  00000-0  14577-3 0  9997,2 54171  53.2161  84.9298 0001705  85.8882 274.2305 15.08825915 86382,6917.923,95.438,540.968,538.609,0.0
54171.0,STARLINK-5229,PAYLOAD,2024-05-21 05:14:37,15.08850269,0.0001783,53.2165,80.4685,84.9991,275.1205,0.00095094,0.00014883,0.0,0 STARLINK-5229,1 54171U 22141Q   24142.21848649  .00014883  00000-0  95094-3 0  9997,2 54171  53.2165  80.4685 0001783  84.9991 275.1205 15.08850269 86530,6917.849,95.437,540.947,538.481,0.0
54171.0,STARLINK-5229,PAYLOAD,2024-05-22 01:54:37,15.08849197,0.0001804,53.2165,76.6017,105.2411,254.8781,0.00044641,6.825e-05,0.0,0 STARLINK-5229,1 54171U 22141Q   24143.07960530  .00006825  00000-0  44641-3 0  9995,2 54171  53.2165  76.6017 0001804 105.2411 254.8781 15.08849197 86669,6917.852,95.437,540.965,538.469,0.0
54171.0,STARLINK-5229,PAYLOAD,2024-05-22 05:05:24,15.08854265,0.0001767,53.2169,76.0049,98.4142,261.7051,0.00058867,9.097e-05,0.0,0 STARLINK-5229,1 54171U 22141Q   24143.21208389  .00009097  00000-0  58867-3 0  9997,2 54171  53.2169  76.0049 0001767  98.4142 261.7051 15.08854265 86685,6917.837,95.437,540.924,538.479,0.0
54171.0,STARLINK-5229,PAYLOAD,2024-05-22 19:23:52,15.08842202,0.0001485,53.2179,73.3291,110.6397,249.4755,9.5697e-05,1.235e-05,0.0,0 STARLINK-5229,1 54171U 22141Q   24143.80824334  .00001235  00000-0  95697-4 0  9995,2 54171  53.2179  73.3291 0001485 110.6397 249.4755 15.08842202 86773,6917.874,95.437,540.766,538.711,0.0
